NORAD_CAT_ID,OBJECT_NAME,OBJECT_TYPE,EPOCH,MEAN_MOTION,ECCENTRICITY,INCLINATION,RA_OF_ASC_NODE,ARG_OF_PERICENTER,MEAN_ANOMALY,BSTAR,MEAN_MOTION_DOT,MEAN_MOTION_DDOT,TLE_LINE0,TLE_LINE1,TLE_LINE2,SEMIMAJOR_AXIS,PERIOD,APOGEE,PERIGEE,DECAYED
56448.0,STARLINK-5990,PAYLOAD,2023-05-29 04:41:02,15.69936496,0.0003726,69.9989,193.3886,270.2872,89.7897,0.00018537,0.00022148,0.0,0 STARLINK-5990,1 56448U 23064A   23149.19516940  .00022148  00000-0  18537-3 0  9990,2 56448  69.9989 193.3886 0003726 270.2872  89.7897 15.69936496  3271,6737.216,91.723,361.591,356.57,0.0
56448.0,STARLINK-5990,PAYLOAD,2023-05-29 12:19:48,15.69936665,0.0003687,69.9988,192.4925,271.0809,88.9964,0.00019888,0.00023782,0.0,0 STARLINK-5990,1 56448U 23064A   23149.51375368  .00023782  00000-0  19888-3 0  9998,2 56448  69.9988 192.4925 0003687 271.0809  88.9964 15.69936665  2979,6737.215,91.723,361.564,356.596,0.0
56448.0,STARLINK-5990,PAYLOAD,2023-05-29 14:00:01,15.69927427,0.0003746,69.999,192.2968,274.1409,119.1223,0.00010209,0.00012083,0.0,0 STARLINK-5990,1 56448U 23064A   23149.58334491  .00012083  00000-0  10209-3 0  9997,2 56448  69.9990 192.2968 0003746 274.1409 119.1223 15.69927427  3335,6737.242,91.724,361.63,356.583,0.0
56448.0,STARLINK-5990,PAYLOAD,2023-05-29 19:58:33,15.69934482,0.0003701,69.9987,191.5969,271.2323,88.8448,0.00015609,0.00018606,0.0,0 STARLINK-5990,1 56448U 23064A   23149.83233736  .00018606  00000-0  15609-3 0  9991,2 56448  69.9987 191.5969 0003701 271.2323  88.8448 15.69934482  3024,6737.221,91.724,361.58,356.593,0.0
56448.0,STARLINK-5990,PAYLOAD,2023-05-30 02:05:34,15.69928509,0.0003745,69.9988,190.8802,270.1007,89.9759,8.8328e-05,0.00010424,0.0,0 STARLINK-5990,1 56448U 23064A   23150.08720536  .00010424  00000-0  88328-4 0  9998,2 56448  69.9988 190.8802 0003745 270.1007  89.9759 15.69928509  3411,6737.239,91.724,361.627,356.58,0.0
56448.0,STARLINK-5990,PAYLOAD,2023-05-30 12:47:50,15.69936674,0.000375,69.9987,189.6264,270.7799,89.2967,0.0001492,0.00017776,0.0,0 STARLINK-5990,1 56448U 23064A   23150.53322065  .00017776  00000-0  14920-3 0  9996,2 56448  69.9987 189.6264 0003750 270.7799  89.2967 15.69936674  3133,6737.215,91.723,361.607,356.554,0.0
56448.0,STARLINK-5990,PAYLOAD,2023-05-30 20:26:35,15.69934055,0.0003707,69.9986,188.7305,270.0602,90.0169,0.00014832,0.00017667,0.0,0 STARLINK-5990,1 56448U 23064A   23150.85180495  .00017667  00000-0  14832-3 0  9991,2 56448  69.9986 188.7305 0003707 270.0602  90.0169 15.69934055  3186,6737.223,91.724,361.585,356.59,0.0
56448.0,STARLINK-5990,PAYLOAD,2023-05-31 02:33:36,15.69943714,0.0003661,69.9985,188.0139,269.3458,90.7318,0.00021798,0.00026102,0.0,0 STARLINK-5990,1 56448U 23064A   23151.10667114  .00026102  00000-0  21798-3 0  9991,2 56448  69.9985 188.0139 0003661 269.3458  90.7318 15.69943714  3570,6737.195,91.723,361.527,356.594,0.0
56448.0,STARLINK-5990,PAYLOAD,2023-05-31 10:12:21,15.69947822,0.0003704,69.9984,187.1183,269.8228,90.2543,0.00015108,0.00018011,0.0,0 STARLINK-5990,1 56448U 23064A   23151.42525174  .00018011  00000-0  15108-3 0  9993,2 56448  69.9984 187.1183 0003704 269.8228  90.2543 15.69947822  3621,6737.183,91.723,361.544,356.553,0.0
56448.0,STARLINK-5990,PAYLOAD,2023-05-31 11:44:07,15.6991953,0.0003585,69.9984,186.9391,271.1515,88.9269,1.7221e-06,-6e-08,0.0,0 STARLINK-5990,1 56448U 23064A   23151.48897391 -.00000006  00000-0  17221-5 0  9998,2 56448  69.9984 186.9391 0003585 271.1515  88.9269 15.69919530  3287,6737.264,91.724,361.545,356.714,0.0
56448.0,STARLINK-5990,PAYLOAD,2023-05-31 14:47:37,15.69922032,0.0003569,69.9983,186.5808,272.2449,87.8338,1.9028e-05,2.076e-05,0.0,0 STARLINK-5990,1 56448U 23064A   23151.61640743  .00002076  00000-0  19028-4 0  9994,2 56448  69.9983 186.5808 0003569 272.2449  87.8338 15.69922032  3652,6737.257,91.724,361.527,356.718,0.0
56448.0,STARLINK-5990,PAYLOAD,2023-05-31 20:54:37,15.69939035,0.0003592,69.9982,185.8643,271.45,88.6284,0.00012536,0.00014897,0.0,0 STARLINK-5990,1 56448U 23064A   23151.87127229  .00014897  00000-0  12536-3 0  9991,2 56448  69.9982 185.8643 0003592 271.4500  88.6284 15.69939035  3341,6737.208,91.723,361.493,356.653,0.0
56448.0,STARLINK-5990,PAYLOAD,2023-06-01 03:01:38,15.69939618,0.0003525,69.9982,185.1473,272.9262,87.153,0.00019072,0.00022797,0.0,0 STARLINK-5990,1 56448U 23064A   23152.12613945  .00022797  00000-0  19072-3 0  9995,2 56448  69.9982 185.1473 0003525 272.9262  87.1530 15.69939618  3730,6737.207,91.723,361.447,356.697,0.0
56448.0,STARLINK-5990,PAYLOAD,2023-06-01 06:05:08,15.69948556,0.0003535,69.9981,184.789,272.3044,87.7747,0.0002616,0.00031393,0.0,0 STARLINK-5990,1 56448U 23064A   23152.25357130  .00031393  00000-0  26160-3 0  9998,2 56448  69.9981 184.7890 0003535 272.3044  87.7747 15.69948556  3401,6737.181,91.723,361.428,356.665,0.0
56448.0,STARLINK-5990,PAYLOAD,2023-06-01 19:50:54,15.69933156,0.0002869,69.9978,183.1763,274.1953,85.8915,0.0001445,0.00017203,0.0,0 STARLINK-5990,1 56448U 23064A   23152.82702414  .00017203  00000-0  14450-3 0  9993,2 56448  69.9978 183.1763 0002869 274.1953  85.8915 15.69933156  3841,6737.225,91.724,361.023,357.157,0.0
56448.0,STARLINK-5990,PAYLOAD,2023-06-02 09:36:40,15.6992825,0.0003703,69.9976,181.5644,266.9806,93.0966,5.7204e-05,6.672e-05,0.0,0 STARLINK-5990,1 56448U 23064A   23153.40047215  .00006672  00000-0  57204-4 0  9992,2 56448  69.9976 181.5644 0003703 266.9806  93.0966 15.69928250  3939,6737.239,91.724,361.599,356.609,0.0
56448.0,STARLINK-5990,PAYLOAD,2023-06-02 11:08:25,15.69927894,0.0003791,69.9976,181.3854,269.6371,90.439,6.483e-05,7.591e-05,0.0,0 STARLINK-5990,1 56448U 23064A   23153.46418964  .00007591  00000-0  64830-4 0  9995,2 56448  69.9976 181.3854 0003791 269.6371  90.4390 15.69927894  3591,6737.24,91.724,361.659,356.551,0.0
56448.0,STARLINK-5990,PAYLOAD,2023-06-02 18:47:11,15.6992595,0.0003823,69.9975,180.4897,271.066,89.0097,6.9576e-05,8.162e-05,0.0,0 STARLINK-5990,1 56448U 23064A   23153.78277434  .00008162  00000-0  69576-4 0  9992,2 56448  69.9975 180.4897 0003823 271.0660  89.0097 15.69925950  3646,6737.246,91.724,361.687,356.535,0.0
56448.0,STARLINK-5990,PAYLOAD,2023-06-03 02:25:57,15.69919073,0.000369,69.9974,179.5946,275.0243,85.0531,3.238e-05,3.682e-05,0.0,0 STARLINK-5990,1 56448U 23064A   23154.10136108  .00003682  00000-0  32380-4 0  9996,2 56448  69.9974 179.5946 0003690 275.0243  85.0531 15.69919073  4045,6737.266,91.724,361.617,356.644,0.0
56448.0,STARLINK-5990,PAYLOAD,2023-06-03 11:36:28,15.6992736,0.0003469,69.9975,178.5192,273.5393,86.5406,2.0779e-05,2.287e-05,0.0,0 STARLINK-5990,1 56448U 23064A   23154.48365904  .00002287  00000-0  20779-4 0  9994,2 56448  69.9975 178.5192 0003469 273.5393  86.5406 15.69927360  3753,6737.242,91.724,361.444,356.77,0.0
56448.0,STARLINK-5990,PAYLOAD,2023-06-03 19:15:13,15.69928642,0.0003379,69.9969,177.6239,272.9703,87.1106,2.5364e-05,2.839e-05,0.0,0 STARLINK-5990,1 56448U 23064A   23154.80224254  .00002839  00000-0  25364-4 0  9990,2 56448  69.9969 177.6239 0003379 272.9703  87.1106 15.69928642  3800,6737.238,91.724,361.38,356.827,0.0
56448.0,STARLINK-5990,PAYLOAD,2023-06-04 02:53:59,15.69923559,0.0003557,69.9986,176.7282,271.9341,88.1448,1.0853e-05,1.092e-05,0.0,0 STARLINK-5990,1 56448U 23064A   23155.12082783  .00001092  00000-0  10853-4 0  9992,2 56448  69.9986 176.7282 0003557 271.9341  88.1448 15.69923559  4209,6737.253,91.724,361.514,356.721,0.0
56448.0,STARLINK-5990,PAYLOAD,2023-06-04 10:32:45,15.69924545,0.0003227,69.9988,175.8326,269.7746,90.308,1.8314e-05,1.99e-05,0.0,0 STARLINK-5990,1 56448U 23064A   23155.43941142  .00001990  00000-0  18314-4 0  9996,2 56448  69.9988 175.8326 0003227 269.7746  90.3080 15.69924545  3907,6737.25,91.724,361.289,356.941,0.0
56448.0,STARLINK-5990,PAYLOAD,2023-06-04 15:08:00,15.69916873,0.0003088,69.9988,175.2948,268.5444,91.5398,1.5154e-05,1.609e-05,0.0,0 STARLINK-5990,1 56448U 23064A   23155.63056632  .00001609  00000-0  15154-4 0  9995,2 56448  69.9988 175.2948 0003088 268.5444  91.5398 15.69916873  4280,6737.272,91.725,361.217,357.056,0.0
56448.0,STARLINK-5990,PAYLOAD,2023-06-05 04:53:46,15.69925915,0.0003692,69.9976,173.6815,265.4101,94.6673,1.7486e-05,1.89e-05,0.0,0 STARLINK-5990,1 56448U 23064A   23156.20401035  .00001890  00000-0  17486-4 0  9992,2 56448  69.9976 173.6815 0003692 265.4101  94.6673 15.69925915  4376,6737.246,91.724,361.598,356.624,0.0
56448.0,STARLINK-5990,PAYLOAD,2023-06-05 11:00:46,15.69929259,0.0003634,69.9974,172.965,266.8319,93.2461,1.7592e-05,1.903e-05,0.0,0 STARLINK-5990,1 56448U 23064A   23156.45887578  .00001903  00000-0  17592-4 0  9992,2 56448  69.9974 172.9650 0003634 266.8319  93.2461 15.69929259  4066,6737.236,91.724,361.55,356.653,0.0
56448.0,STARLINK-5990,PAYLOAD,2023-06-05 18:39:32,15.69924882,0.0003573,69.9979,172.0692,266.6445,93.4342,1.1102e-05,1.122e-05,0.0,0 STARLINK-5990,1 56448U 23064A   23156.77746157  .00001122  00000-0  11102-4 0  9998,2 56448  69.9979 172.0692 0003573 266.6445  93.4342 15.69924882  4111,6737.249,91.724,361.521,356.707,0.0
56448.0,STARLINK-5990,PAYLOAD,2023-06-06 08:25:18,15.69925848,0.0003508,69.9983,170.457,265.8588,94.2207,1.6307e-05,1.749e-05,0.0,0 STARLINK-5990,1 56448U 23064A   23157.35091196  .00001749  00000-0  16307-4 0  9996,2 56448  69.9983 170.4570 0003508 265.8588  94.2207 15.69925848  4550,6737.246,91.724,361.475,356.748,0.0
56448.0,STARLINK-5990,PAYLOAD,2023-06-06 09:57:03,15.6992533,0.000351,69.9984,170.2779,266.0204,94.059,1.449e-05,1.53e-05,0.0,0 STARLINK-5990,1 56448U 23064A   23157.41462902  .00001530  00000-0  14490-4 0  9999,2 56448  69.9984 170.2779 0003510 266.0204  94.0590 15.69925330  4213,6737.248,91.724,361.477,356.748,0.0
56448.0,STARLINK-5990,PAYLOAD,2023-06-07 04:18:05,15.69920718,0.000347,69.9984,168.1289,266.045,94.0349,2.2395e-06,5.6e-07,0.0,0 STARLINK-5990,1 56448U 23064A   23158.17923229  .00000056  00000-0  22395-5 0  9993,2 56448  69.9984 168.1289 0003470 266.0450  94.0349 15.69920718  4681,6737.261,91.724,361.464,356.788,0.0
